{
  "type": "FeatureCollection",
  "features": [
    {
      "type": "Feature",
      "properties": {
        "norad_id": 32275,
        "name": "COSMOS 2433 (720)",
        "group": "glo-ops",
        "lat": 45.32336281385764,
        "lon": 114.53036230922932,
        "alt_km": 19132.615683328142,
        "timestamp": "2025-12-26T09:30:53.898624+00:00",
        "meta_object_name": "COSMOS 2433 (720)",
        "meta_object_id": "2007-052A",
        "meta_epoch": "2025-12-24T08:26:16.805760",
        "meta_mean_motion": 2.13104186,
        "meta_eccentricity": 0.00051043,
        "meta_inclination": 65.677,
        "meta_ra_of_asc_node": 321.8159,
        "meta_arg_of_pericenter": 257.0223,
        "meta_mean_anomaly": 102.9214,
        "meta_ephemeris_type": 0,
        "meta_classification_type": "U",
        "meta_norad_cat_id": 32275,
        "meta_element_set_no": 999,
        "meta_rev_at_epoch": 14133,
        "meta_bstar": 0,
        "meta_mean_motion_dot": -3.3e-07,
        "meta_mean_motion_ddot": 0,
        "tle_line1": "1 32275U 07052A   25358.35158340 -.00000033  00000+0  00000+0 0  9990",
        "tle_line2": "2 32275  65.6770 321.8159 0005104 257.0223 102.9214  2.13104186141339"
      },
      "geometry": {
        "type": "Point",
        "coordinates": [
          114.53036230922932,
          45.32336281385764
        ]
      }
    },
    {
      "type": "Feature",
      "properties": {
        "norad_id": 32276,
        "name": "COSMOS 2432 (719)",
        "group": "glo-ops",
        "lat": 60.779884980817464,
        "lon": 15.713038465499055,
        "alt_km": 19137.026369696345,
        "timestamp": "2025-12-26T09:30:53.898649+00:00",
        "meta_object_name": "COSMOS 2432 (719)",
        "meta_object_id": "2007-052B",
        "meta_epoch": "2025-12-24T04:32:38.772960",
        "meta_mean_motion": 2.13103387,
        "meta_eccentricity": 0.00113791,
        "meta_inclination": 65.6931,
        "meta_ra_of_asc_node": 321.9458,
        "meta_arg_of_pericenter": 314.7871,
        "meta_mean_anomaly": 225.1187,
        "meta_ephemeris_type": 0,
        "meta_classification_type": "U",
        "meta_norad_cat_id": 32276,
        "meta_element_set_no": 999,
        "meta_rev_at_epoch": 14135,
        "meta_bstar": 0,
        "meta_mean_motion_dot": -3.3e-07,
        "meta_mean_motion_ddot": 0,
        "tle_line1": "1 32276U 07052B   25358.18933765 -.00000033  00000+0  00000+0 0  9994",
        "tle_line2": "2 32276  65.6931 321.9458 0011379 314.7871 225.1187  2.13103387141354"
      },
      "geometry": {
        "type": "Point",
        "coordinates": [
          15.713038465499055,
          60.779884980817464
        ]
      }
    },
    {
      "type": "Feature",
      "properties": {
        "norad_id": 32393,
        "name": "COSMOS 2434 (721)",
        "group": "glo-ops",
        "lat": 17.22484413572703,
        "lon": -153.67053086655585,
        "alt_km": 19120.806507500743,
        "timestamp": "2025-12-26T09:30:53.898665+00:00",
        "meta_object_name": "COSMOS 2434 (721)",
        "meta_object_id": "2007-065A",
        "meta_epoch": "2025-12-25T04:50:38.690880",
        "meta_mean_motion": 2.13101426,
        "meta_eccentricity": 0.00048155,
        "meta_inclination": 64.316,
        "meta_ra_of_asc_node": 197.7825,
        "meta_arg_of_pericenter": 72.3335,
        "meta_mean_anomaly": 110.4789,
        "meta_ephemeris_type": 0,
        "meta_classification_type": "U",
        "meta_norad_cat_id": 32393,
        "meta_element_set_no": 999,
        "meta_rev_at_epoch": 14006,
        "meta_bstar": 0,
        "meta_mean_motion_dot": 1.04e-06,
        "meta_mean_motion_ddot": 0,
        "tle_line1": "1 32393U 07065A   25359.20183670  .00000104  00000+0  00000+0 0  9992",
        "tle_line2": "2 32393  64.3160 197.7825 0004815  72.3335 110.4789  2.13101426140063"
      },
      "geometry": {
        "type": "Point",
        "coordinates": [
          -153.67053086655585,
          17.22484413572703
        ]
      }
    },
    {
      "type": "Feature",
      "properties": {
        "norad_id": 32395,
        "name": "COSMOS 2436 (723)",
        "group": "glo-ops",
        "lat": 24.649187643648112,
        "lon": 5.05877360942201,
        "alt_km": 19163.143896049794,
        "timestamp": "2025-12-26T09:30:53.898679+00:00",
        "meta_object_name": "COSMOS 2436 (723)",
        "meta_object_id": "2007-065C",
        "meta_epoch": "2025-12-25T06:17:47.253408",
        "meta_mean_motion": 2.1310019,
        "meta_eccentricity": 0.0017826,
        "meta_inclination": 64.3246,
        "meta_ra_of_asc_node": 197.8509,
        "meta_arg_of_pericenter": 10.3034,
        "meta_mean_anomaly": 351.9575,
        "meta_ephemeris_type": 0,
        "meta_classification_type": "U",
        "meta_norad_cat_id": 32395,
        "meta_element_set_no": 999,
        "meta_rev_at_epoch": 14002,
        "meta_bstar": 0,
        "meta_mean_motion_dot": 1.04e-06,
        "meta_mean_motion_ddot": 0,
        "tle_line1": "1 32395U 07065C   25359.26235247  .00000104  00000+0  00000+0 0  9998",
        "tle_line2": "2 32395  64.3246 197.8509 0017826  10.3034 351.9575  2.13100190140022"
      },
      "geometry": {
        "type": "Point",
        "coordinates": [
          5.05877360942201,
          24.649187643648112
        ]
      }
    },
    {
      "type": "Feature",
      "properties": {
        "norad_id": 36111,
        "name": "COSMOS 2456 (730)",
        "group": "glo-ops",
        "lat": 3.2455429742705566,
        "lon": -104.63726668556362,
        "alt_km": 19134.32083300669,
        "timestamp": "2025-12-26T09:30:53.898692+00:00",
        "meta_object_name": "COSMOS 2456 (730)",
        "meta_object_id": "2009-070A",
        "meta_epoch": "2025-12-24T09:16:29.146080",
        "meta_mean_motion": 2.13103739,
        "meta_eccentricity": 0.00036447,
        "meta_inclination": 64.9059,
        "meta_ra_of_asc_node": 76.94,
        "meta_arg_of_pericenter": 294.9884,
        "meta_mean_anomaly": 139.4332,
        "meta_ephemeris_type": 0,
        "meta_classification_type": "U",
        "meta_norad_cat_id": 36111,
        "meta_element_set_no": 999,
        "meta_rev_at_epoch": 12470,
        "meta_bstar": 0,
        "meta_mean_motion_dot": -1e-08,
        "meta_mean_motion_ddot": 0,
        "tle_line1": "1 36111U 09070A   25358.38644845 -.00000001  00000+0  00000+0 0  9993",
        "tle_line2": "2 36111  64.9059  76.9400 0003644 294.9884 139.4332  2.13103739124702"
      },
      "geometry": {
        "type": "Point",
        "coordinates": [
          -104.63726668556362,
          3.2455429742705566
        ]
      }
    },
    {
      "type": "Feature",
      "properties": {
        "norad_id": 36112,
        "name": "COSMOS 2457 (733)",
        "group": "glo-ops",
        "lat": -47.5388807574407,
        "lon": 45.95401040867555,
        "alt_km": 19144.484005881095,
        "timestamp": "2025-12-26T09:30:53.898704+00:00",
        "meta_object_name": "COSMOS 2457 (733)",
        "meta_object_id": "2009-070B",
        "meta_epoch": "2025-12-25T12:53:15.895392",
        "meta_mean_motion": 2.13101109,
        "meta_eccentricity": 0.0004451,
        "meta_inclination": 64.8923,
        "meta_ra_of_asc_node": 76.7479,
        "meta_arg_of_pericenter": 163.6164,
        "meta_mean_anomaly": 202.4906,
        "meta_ephemeris_type": 0,
        "meta_classification_type": "U",
        "meta_norad_cat_id": 36112,
        "meta_element_set_no": 999,
        "meta_rev_at_epoch": 12473,
        "meta_bstar": 0,
        "meta_mean_motion_dot": -5e-08,
        "meta_mean_motion_ddot": 0,
        "tle_line1": "1 36112U 09070B   25359.53698953 -.00000005  00000+0  00000+0 0  9995",
        "tle_line2": "2 36112  64.8923  76.7479 0004451 163.6164 202.4906  2.13101109124736"
      },
      "geometry": {
        "type": "Point",
        "coordinates": [
          45.95401040867555,
          -47.5388807574407
        ]
      }
    },
    {
      "type": "Feature",
      "properties": {
        "norad_id": 36402,
        "name": "COSMOS 2460 (732)",
        "group": "glo-ops",
        "lat": -48.07087956047213,
        "lon": -70.15522244839612,
        "alt_km": 19129.263990016647,
        "timestamp": "2025-12-26T09:30:53.898716+00:00",
        "meta_object_name": "COSMOS 2460 (732)",
        "meta_object_id": "2010-007C",
        "meta_epoch": "2025-12-25T05:13:15.714336",
        "meta_mean_motion": 2.13106358,
        "meta_eccentricity": 0.00024876,
        "meta_inclination": 65.5229,
        "meta_ra_of_asc_node": 320.3522,
        "meta_arg_of_pericenter": 284.3328,
        "meta_mean_anomaly": 196.3839,
        "meta_ephemeris_type": 0,
        "meta_classification_type": "U",
        "meta_norad_cat_id": 36402,
        "meta_element_set_no": 999,
        "meta_rev_at_epoch": 12302,
        "meta_bstar": 0,
        "meta_mean_motion_dot": -3.2e-07,
        "meta_mean_motion_ddot": 0,
        "tle_line1": "1 36402U 10007C   25359.21754299 -.00000032  00000+0  00000+0 0  9990",
        "tle_line2": "2 36402  65.5229 320.3522 0002487 284.3328 196.3839  2.13106358123020"
      },
      "geometry": {
        "type": "Point",
        "coordinates": [
          -70.15522244839612,
          -48.07087956047213
        ]
      }
    }
  ]
}